AEROCUBE 6A             
1 40045U 14033AM  26068.93083119  .00007845  00000+0  67890-3 0  9996
2 40045  97.7128 237.0691 0038730 349.0559  10.9816 14.96848607631764
STARLINK-5974           
1 56344U 23058AD  26068.91038006  .00001022  00000+0  75030-4 0  9992
2 56344  97.6046  71.4943 0001785  84.2560 275.8870 15.05653959158234
