[{"OBJECT_NAME":"AEROCUBE 6A","OBJECT_ID":"2014-033AM","EPOCH":"2026-03-09T22:20:23.815680","MEAN_MOTION":14.96848607,"ECCENTRICITY":0.00387302,"INCLINATION":97.7128,"RA_OF_ASC_NODE":237.0691,"ARG_OF_PERICENTER":349.0559,"MEAN_ANOMALY":10.9816,"EPHEMERIS_TYPE":0,"CLASSIFICATION_TYPE":"U","NORAD_CAT_ID":40045,"ELEMENT_SET_NO":999,"REV_AT_EPOCH":63176,"BSTAR":0.00067890448,"MEAN_MOTION_DOT":7.845e-5,"MEAN_MOTION_DDOT":0},{"OBJECT_NAME":"STARLINK-5974","OBJECT_ID":"2023-058AD","EPOCH":"2026-03-09T21:50:56.837184","MEAN_MOTION":15.05653959,"ECCENTRICITY":0.00017848,"INCLINATION":97.6046,"RA_OF_ASC_NODE":71.4943,"ARG_OF_PERICENTER":84.256,"MEAN_ANOMALY":275.887,"EPHEMERIS_TYPE":0,"CLASSIFICATION_TYPE":"U","NORAD_CAT_ID":56344,"ELEMENT_SET_NO":999,"REV_AT_EPOCH":15823,"BSTAR":7.5029831e-5,"MEAN_MOTION_DOT":1.022e-5,"MEAN_MOTION_DDOT":0}]
